{
  "type": "FeatureCollection",
  "features": [
    {
      "type": "Feature",
      "properties": {
        "name": "Village Boundary"
      },
      "geometry": {
        "type": "Polygon",
        "coordinates": [
          [
            [
              77.7037431883325,
              12.695488120086512
            ],
            [
              77.70372416461474,
              12.699039272532394
            ],
            [
              77.69981482951187,
              12.705525973277489
            ],
            [
              77.69359009377501,
              12.703913785730318
            ],
            [
              77.69085075660776,
              12.702734876318951
            ],
            [
              77.68628523326484,
              12.701436436980345
            ],
            [
              77.68566152382856,
              12.696790025265488
            ],
            [
              77.68581608488968,
              12.688936248565332
            ],
            [
              77.68835448725999,
              12.685988560543759
            ],
            [
              77.69607120051,
              12.686389625780096
            ],
            [
              77.70202319590986,
              12.685682902558272
            ],
            [
              77.70275813954925,
              12.689833553383158
            ],
            [
              77.7037431883325,
              12.695488120086512
            ]
          ]
        ]
      }
    }
  ]
}