{
  "type": "FeatureCollection",
  "features": [
    {
      "type": "Feature",
      "properties": {
        "name": "Village Boundary"
      },
      "geometry": {
        "type": "Polygon",
        "coordinates": [
          [
            [
              77.72636351867064,
              12.683275220215732
            ],
            [
              77.72391434241027,
              12.685656538659904
            ],
            [
              77.72033646232352,
              12.68982351625957
            ],
            [
              77.7139266433873,
              12.692126121184133
            ],
            [
              77.70997160812557,
              12.690785930656403
            ],
            [
              77.70644529984273,
              12.68676093609822
            ],
            [
              77.706455111175,
              12.68178716977774
            ],
            [
              77.70655938565916,
              12.678958155345518
            ],
            [
              77.7105875774938,
              12.673671094841977
            ],
            [
              77.7157735165923,
              12.67106112416136
            ],
            [
              77.71846109835444,
              12.674597787820758
            ],
            [
              77.72245369310232,
              12.678049019154258
            ],
            [
              77.72636351867064,
              12.683275220215732
            ]
          ]
        ]
      }
    }
  ]
}